ONEWEB-0300             
1 49089U 21075Q   24200.84774944 -.00000137  00000+0 -41648-3 0  9998
2 49089  87.8952 129.7353 0002345  73.1729 286.9656 13.12445109143600
ONEWEB-0301             
1 49090U 21075R   24200.83153063 -.00000417  00000+0 -11950-2 0  9995
2 49090  87.8954 129.7419 0002258  73.7658 286.3718 13.12442965142965
ONEWEB-0302             
1 49091U 21075S   24200.81855170 -.00000186  00000+0 -55120-3 0  9993
2 49091  87.8954 129.7431 0001817  81.6773 278.4561 13.12441859142943
ONEWEB-0304             
1 49092U 21075T   24201.54311133  .00000054  00000+0  10707-3 0  9995
2 49092  87.9190 144.7774 0001961  87.3324 272.8032 13.17650938142686
ONEWEB-0305             
1 49093U 21075U   24200.92754256  .00000036  00000+0  58593-4 0  9990
2 49093  87.9187 144.8855 0002182  93.2258 266.9123 13.17648707141654
ONEWEB-0308             
1 49094U 21075V   24200.81206219  .00000097  00000+0  23402-3 0  9997
2 49094  87.8953 129.7434 0002067  76.3183 283.8175 13.12442549142951
ONEWEB-0309             
1 49095U 21075W   24200.85646064  .00000012  00000+0 -15777-5 0  9994
2 49095  87.9190 144.9050 0001488  81.8750 278.2550 13.17650259141617
ONEWEB-0310             
1 49096U 21075X   24200.82665240 -.00000326  00000+0 -94115-3 0  9999
2 49096  87.8964 129.7511 0001846  77.5292 282.6043 13.12445027143584
