<?xml version="1.0" encoding="UTF-8"?>
<ndm xmlns:xsi="http://www.w3.org/2001/XMLSchema-instance" xsi:noNamespaceSchemaLocation="https://sanaregistry.org/r/ndmxml_unqualified/ndmxml-2.0.0-master-2.0.xsd">
<omm id="CCSDS_OMM_VERS" version="2.0">
<header><CREATION_DATE/><ORIGINATOR/></header><body><segment><metadata><OBJECT_NAME>ONEWEB-0300</OBJECT_NAME><OBJECT_ID>2021-075Q</OBJECT_ID><CENTER_NAME>EARTH</CENTER_NAME><REF_FRAME>TEME</REF_FRAME><TIME_SYSTEM>UTC</TIME_SYSTEM><MEAN_ELEMENT_THEORY>SGP4</MEAN_ELEMENT_THEORY></metadata><data><meanElements><EPOCH>2024-07-18T20:20:45.551616</EPOCH><MEAN_MOTION>13.12445109</MEAN_MOTION><ECCENTRICITY>.0002345</ECCENTRICITY><INCLINATION>87.8952</INCLINATION><RA_OF_ASC_NODE>129.7353</RA_OF_ASC_NODE><ARG_OF_PERICENTER>73.1729</ARG_OF_PERICENTER><MEAN_ANOMALY>286.9656</MEAN_ANOMALY></meanElements><tleParameters><EPHEMERIS_TYPE>0</EPHEMERIS_TYPE><CLASSIFICATION_TYPE>U</CLASSIFICATION_TYPE><NORAD_CAT_ID>49089</NORAD_CAT_ID><ELEMENT_SET_NO>999</ELEMENT_SET_NO><REV_AT_EPOCH>14360</REV_AT_EPOCH><BSTAR>-.41648E-3</BSTAR><MEAN_MOTION_DOT>-.137E-5</MEAN_MOTION_DOT><MEAN_MOTION_DDOT>0</MEAN_MOTION_DDOT></tleParameters></data></segment></body></omm>
<omm id="CCSDS_OMM_VERS" version="2.0">
<header><CREATION_DATE/><ORIGINATOR/></header><body><segment><metadata><OBJECT_NAME>ONEWEB-0301</OBJECT_NAME><OBJECT_ID>2021-075R</OBJECT_ID><CENTER_NAME>EARTH</CENTER_NAME><REF_FRAME>TEME</REF_FRAME><TIME_SYSTEM>UTC</TIME_SYSTEM><MEAN_ELEMENT_THEORY>SGP4</MEAN_ELEMENT_THEORY></metadata><data><meanElements><EPOCH>2024-07-18T19:57:24.246432</EPOCH><MEAN_MOTION>13.12442965</MEAN_MOTION><ECCENTRICITY>.0002258</ECCENTRICITY><INCLINATION>87.8954</INCLINATION><RA_OF_ASC_NODE>129.7419</RA_OF_ASC_NODE><ARG_OF_PERICENTER>73.7658</ARG_OF_PERICENTER><MEAN_ANOMALY>286.3718</MEAN_ANOMALY></meanElements><tleParameters><EPHEMERIS_TYPE>0</EPHEMERIS_TYPE><CLASSIFICATION_TYPE>U</CLASSIFICATION_TYPE><NORAD_CAT_ID>49090</NORAD_CAT_ID><ELEMENT_SET_NO>999</ELEMENT_SET_NO><REV_AT_EPOCH>14296</REV_AT_EPOCH><BSTAR>-.1195E-2</BSTAR><MEAN_MOTION_DOT>-.417E-5</MEAN_MOTION_DOT><MEAN_MOTION_DDOT>0</MEAN_MOTION_DDOT></tleParameters></data></segment></body></omm>
<omm id="CCSDS_OMM_VERS" version="2.0">
<header><CREATION_DATE/><ORIGINATOR/></header><body><segment><metadata><OBJECT_NAME>ONEWEB-0302</OBJECT_NAME><OBJECT_ID>2021-075S</OBJECT_ID><CENTER_NAME>EARTH</CENTER_NAME><REF_FRAME>TEME</REF_FRAME><TIME_SYSTEM>UTC</TIME_SYSTEM><MEAN_ELEMENT_THEORY>SGP4</MEAN_ELEMENT_THEORY></metadata><data><meanElements><EPOCH>2024-07-18T19:38:42.866880</EPOCH><MEAN_MOTION>13.12441859</MEAN_MOTION><ECCENTRICITY>.0001817</ECCENTRICITY><INCLINATION>87.8954</INCLINATION><RA_OF_ASC_NODE>129.7431</RA_OF_ASC_NODE><ARG_OF_PERICENTER>81.6773</ARG_OF_PERICENTER><MEAN_ANOMALY>278.4561</MEAN_ANOMALY></meanElements><tleParameters><EPHEMERIS_TYPE>0</EPHEMERIS_TYPE><CLASSIFICATION_TYPE>U</CLASSIFICATION_TYPE><NORAD_CAT_ID>49091</NORAD_CAT_ID><ELEMENT_SET_NO>999</ELEMENT_SET_NO><REV_AT_EPOCH>14294</REV_AT_EPOCH><BSTAR>-.5512E-3</BSTAR><MEAN_MOTION_DOT>-.186E-5</MEAN_MOTION_DOT><MEAN_MOTION_DDOT>0</MEAN_MOTION_DDOT></tleParameters></data></segment></body></omm>
<omm id="CCSDS_OMM_VERS" version="2.0">
<header><CREATION_DATE/><ORIGINATOR/></header><body><segment><metadata><OBJECT_NAME>ONEWEB-0304</OBJECT_NAME><OBJECT_ID>2021-075T</OBJECT_ID><CENTER_NAME>EARTH</CENTER_NAME><REF_FRAME>TEME</REF_FRAME><TIME_SYSTEM>UTC</TIME_SYSTEM><MEAN_ELEMENT_THEORY>SGP4</MEAN_ELEMENT_THEORY></metadata><data><meanElements><EPOCH>2024-07-19T13:02:04.818912</EPOCH><MEAN_MOTION>13.17650938</MEAN_MOTION><ECCENTRICITY>.0001961</ECCENTRICITY><INCLINATION>87.9190</INCLINATION><RA_OF_ASC_NODE>144.7774</RA_OF_ASC_NODE><ARG_OF_PERICENTER>87.3324</ARG_OF_PERICENTER><MEAN_ANOMALY>272.8032</MEAN_ANOMALY></meanElements><tleParameters><EPHEMERIS_TYPE>0</EPHEMERIS_TYPE><CLASSIFICATION_TYPE>U</CLASSIFICATION_TYPE><NORAD_CAT_ID>49092</NORAD_CAT_ID><ELEMENT_SET_NO>999</ELEMENT_SET_NO><REV_AT_EPOCH>14268</REV_AT_EPOCH><BSTAR>.10707E-3</BSTAR><MEAN_MOTION_DOT>.54E-6</MEAN_MOTION_DOT><MEAN_MOTION_DDOT>0</MEAN_MOTION_DDOT></tleParameters></data></segment></body></omm>
<omm id="CCSDS_OMM_VERS" version="2.0">
<header><CREATION_DATE/><ORIGINATOR/></header><body><segment><metadata><OBJECT_NAME>ONEWEB-0305</OBJECT_NAME><OBJECT_ID>2021-075U</OBJECT_ID><CENTER_NAME>EARTH</CENTER_NAME><REF_FRAME>TEME</REF_FRAME><TIME_SYSTEM>UTC</TIME_SYSTEM><MEAN_ELEMENT_THEORY>SGP4</MEAN_ELEMENT_THEORY></metadata><data><meanElements><EPOCH>2024-07-18T22:15:39.677184</EPOCH><MEAN_MOTION>13.17648707</MEAN_MOTION><ECCENTRICITY>.0002182</ECCENTRICITY><INCLINATION>87.9187</INCLINATION><RA_OF_ASC_NODE>144.8855</RA_OF_ASC_NODE><ARG_OF_PERICENTER>93.2258</ARG_OF_PERICENTER><MEAN_ANOMALY>266.9123</MEAN_ANOMALY></meanElements><tleParameters><EPHEMERIS_TYPE>0</EPHEMERIS_TYPE><CLASSIFICATION_TYPE>U</CLASSIFICATION_TYPE><NORAD_CAT_ID>49093</NORAD_CAT_ID><ELEMENT_SET_NO>999</ELEMENT_SET_NO><REV_AT_EPOCH>14165</REV_AT_EPOCH><BSTAR>.58593E-4</BSTAR><MEAN_MOTION_DOT>.36E-6</MEAN_MOTION_DOT><MEAN_MOTION_DDOT>0</MEAN_MOTION_DDOT></tleParameters></data></segment></body></omm>
<omm id="CCSDS_OMM_VERS" version="2.0">
<header><CREATION_DATE/><ORIGINATOR/></header><body><segment><metadata><OBJECT_NAME>ONEWEB-0308</OBJECT_NAME><OBJECT_ID>2021-075V</OBJECT_ID><CENTER_NAME>EARTH</CENTER_NAME><REF_FRAME>TEME</REF_FRAME><TIME_SYSTEM>UTC</TIME_SYSTEM><MEAN_ELEMENT_THEORY>SGP4</MEAN_ELEMENT_THEORY></metadata><data><meanElements><EPOCH>2024-07-18T19:29:22.173216</EPOCH><MEAN_MOTION>13.12442549</MEAN_MOTION><ECCENTRICITY>.0002067</ECCENTRICITY><INCLINATION>87.8953</INCLINATION><RA_OF_ASC_NODE>129.7434</RA_OF_ASC_NODE><ARG_OF_PERICENTER>76.3183</ARG_OF_PERICENTER><MEAN_ANOMALY>283.8175</MEAN_ANOMALY></meanElements><tleParameters><EPHEMERIS_TYPE>0</EPHEMERIS_TYPE><CLASSIFICATION_TYPE>U</CLASSIFICATION_TYPE><NORAD_CAT_ID>49094</NORAD_CAT_ID><ELEMENT_SET_NO>999</ELEMENT_SET_NO><REV_AT_EPOCH>14295</REV_AT_EPOCH><BSTAR>.23402E-3</BSTAR><MEAN_MOTION_DOT>.97E-6</MEAN_MOTION_DOT><MEAN_MOTION_DDOT>0</MEAN_MOTION_DDOT></tleParameters></data></segment></body></omm>
<omm id="CCSDS_OMM_VERS" version="2.0">
<header><CREATION_DATE/><ORIGINATOR/></header><body><segment><metadata><OBJECT_NAME>ONEWEB-0309</OBJECT_NAME><OBJECT_ID>2021-075W</OBJECT_ID><CENTER_NAME>EARTH</CENTER_NAME><REF_FRAME>TEME</REF_FRAME><TIME_SYSTEM>UTC</TIME_SYSTEM><MEAN_ELEMENT_THEORY>SGP4</MEAN_ELEMENT_THEORY></metadata><data><meanElements><EPOCH>2024-07-18T20:33:18.199296</EPOCH><MEAN_MOTION>13.17650259</MEAN_MOTION><ECCENTRICITY>.0001488</ECCENTRICITY><INCLINATION>87.9190</INCLINATION><RA_OF_ASC_NODE>144.9050</RA_OF_ASC_NODE><ARG_OF_PERICENTER>81.8750</ARG_OF_PERICENTER><MEAN_ANOMALY>278.2550</MEAN_ANOMALY></meanElements><tleParameters><EPHEMERIS_TYPE>0</EPHEMERIS_TYPE><CLASSIFICATION_TYPE>U</CLASSIFICATION_TYPE><NORAD_CAT_ID>49095</NORAD_CAT_ID><ELEMENT_SET_NO>999</ELEMENT_SET_NO><REV_AT_EPOCH>14161</REV_AT_EPOCH><BSTAR>-.15777E-5</BSTAR><MEAN_MOTION_DOT>.12E-6</MEAN_MOTION_DOT><MEAN_MOTION_DDOT>0</MEAN_MOTION_DDOT></tleParameters></data></segment></body></omm>
<omm id="CCSDS_OMM_VERS" version="2.0">
<header><CREATION_DATE/><ORIGINATOR/></header><body><segment><metadata><OBJECT_NAME>ONEWEB-0310</OBJECT_NAME><OBJECT_ID>2021-075X</OBJECT_ID><CENTER_NAME>EARTH</CENTER_NAME><REF_FRAME>TEME</REF_FRAME><TIME_SYSTEM>UTC</TIME_SYSTEM><MEAN_ELEMENT_THEORY>SGP4</MEAN_ELEMENT_THEORY></metadata><data><meanElements><EPOCH>2024-07-18T19:50:22.767360</EPOCH><MEAN_MOTION>13.12445027</MEAN_MOTION><ECCENTRICITY>.0001846</ECCENTRICITY><INCLINATION>87.8964</INCLINATION><RA_OF_ASC_NODE>129.7511</RA_OF_ASC_NODE><ARG_OF_PERICENTER>77.5292</ARG_OF_PERICENTER><MEAN_ANOMALY>282.6043</MEAN_ANOMALY></meanElements><tleParameters><EPHEMERIS_TYPE>0</EPHEMERIS_TYPE><CLASSIFICATION_TYPE>U</CLASSIFICATION_TYPE><NORAD_CAT_ID>49096</NORAD_CAT_ID><ELEMENT_SET_NO>999</ELEMENT_SET_NO><REV_AT_EPOCH>14358</REV_AT_EPOCH><BSTAR>-.94115E-3</BSTAR><MEAN_MOTION_DOT>-.326E-5</MEAN_MOTION_DOT><MEAN_MOTION_DDOT>0</MEAN_MOTION_DDOT></tleParameters></data></segment></body></omm>

</ndm>
